MTI                     
1 26102U 00014A   17066.41849244  .00007459  00000-0  15504-3 0  9995
2 26102  97.5632 232.9879 0007003 284.5350 129.6106 15.45948589938791
CFESAT                  
1 30777U 07006F   17065.95297860  .00003988  00000-0  13389-3 0  9997
2 30777  35.4286  16.7744 0004291 161.5383 198.5498 15.30424599552330
SPIRALE A               
1 33751U 09008C   17065.19435576 -.00000001  00000-0  86505-4 0  9995
2 33751   2.0550 267.5034 5527454 228.3817  68.5700  4.58651018106217
SPIRALE B               
1 33752U 09008D   17065.40367265  .00009576  00000-0  13605-2 0  9993
2 33752   2.1099  47.9081 6974587 295.1714  10.1221  2.69007520 72071
SAPPHIRE                
1 39088U 13009C   17066.17607221  .00000004  00000-0  17040-4 0  9997
2 39088  98.5647 270.2647 0010443 235.3377 124.6824 14.34129597210745
